start=new Date('2021-12-08T00:00:00.000Z').valueOf();
sats=[{"MEAN_MOTION_DOT":"0.00000864","PERIOD":"95.592","CLASSIFICATION_TYPE":"U","PERIAPSIS":"546.135","ARG_OF_PERICENTER":"90.7497","BSTAR":"0.00007689300000","INCLINATION":"53.0542","MEAN_MOTION":"15.06396201","OBJECT_TYPE":"PAYLOAD","TLE_LINE1":"1 44924U 20001L   21341.76711952  .00000864  00000-0  76893-4 0  9990","ECCENTRICITY":"0.00015740","SEMIMAJOR_AXIS":"6925.360","NORAD_CAT_ID":"44924","GP_ID":"191297499","ELEMENT_SET_NO":"999","EPHEMERIS_TYPE":"0","MEAN_MOTION_DDOT":"0.0000000000000","LAUNCH_DATE":"2020-01-07","APOAPSIS":"548.315","TLE_LINE2":"2 44924  53.0542 117.9606 0001574  90.7497 269.3673 15.06396201105787","CENTER_NAME":"EARTH","FILE":"3235143","COUNTRY_CODE":"US","REF_FRAME":"TEME","MEAN_ELEMENT_THEORY":"SGP4","RCS_SIZE":"LARGE","DECAY_DATE":null,"SITE":"AFETR","EPOCH":"2021-12-07T18:24:39.126528","TIME_SYSTEM":"UTC","REV_AT_EPOCH":"10578","RA_OF_ASC_NODE":"117.9606","MEAN_ANOMALY":"269.3673","OBJECT_ID":"2020-001L","OBJECT_NAME":"STARLINK-1111"},{"MEAN_MOTION_DOT":"0.00000255","CLASSIFICATION_TYPE":"U","PERIOD":"95.592","PERIAPSIS":"546.136","ARG_OF_PERICENTER":"97.5635","BSTAR":"0.00003599200000","INCLINATION":"53.0539","MEAN_MOTION":"15.06408202","OBJECT_TYPE":"PAYLOAD","TLE_LINE1":"1 44925U 20001M   21341.78186522  .00000255  00000-0  35992-4 0  9991","ECCENTRICITY":"0.00015200","SEMIMAJOR_AXIS":"6925.323","NORAD_CAT_ID":"44925","GP_ID":"191298253","ELEMENT_SET_NO":"999","EPHEMERIS_TYPE":"0","MEAN_MOTION_DDOT":"0.0000000000000","LAUNCH_DATE":"2020-01-07","TLE_LINE2":"2 44925  53.0539 117.8896 0001520  97.5635 262.5526 15.06408202105781","APOAPSIS":"548.241","CENTER_NAME":"EARTH","FILE":"3235143","COUNTRY_CODE":"US","REF_FRAME":"TEME","MEAN_ELEMENT_THEORY":"SGP4","RCS_SIZE":"LARGE","DECAY_DATE":null,"SITE":"AFETR","EPOCH":"2021-12-07T18:45:53.155008","TIME_SYSTEM":"UTC","REV_AT_EPOCH":"10578","RA_OF_ASC_NODE":"117.8896","MEAN_ANOMALY":"262.5526","OBJECT_ID":"2020-001M","OBJECT_NAME":"STARLINK-1112"},{"MEAN_MOTION":"15.05582203","INCLINATION":"52.9989","BSTAR":"-0.00001730900000","ARG_OF_PERICENTER":"91.8074","PERIAPSIS":"548.672","CLASSIFICATION_TYPE":"U","PERIOD":"95.644","MEAN_MOTION_DOT":"-0.00000532","ELEMENT_SET_NO":"999","GP_ID":"191297001","NORAD_CAT_ID":"44926","SEMIMAJOR_AXIS":"6927.856","ECCENTRICITY":"0.00015140","TLE_LINE1":"1 44926U 20001N   21341.68774993 -.00000532  00000-0 -17309-4 0  9998","OBJECT_TYPE":"PAYLOAD","FILE":"3235143","CENTER_NAME":"EARTH","TLE_LINE2":"2 44926  52.9989 118.3197 0001514  91.8074 268.3088 15.05582203106495","APOAPSIS":"550.770","LAUNCH_DATE":"2020-01-07","MEAN_MOTION_DDOT":"0.0000000000000","EPHEMERIS_TYPE":"0","OBJECT_NAME":"STARLINK-1113","OBJECT_ID":"2020-001N","MEAN_ANOMALY":"268.3088","RA_OF_ASC_NODE":"118.3197","REV_AT_EPOCH":"10649","TIME_SYSTEM":"UTC","EPOCH":"2021-12-07T16:30:21.593952","SITE":"AFETR","RCS_SIZE":"LARGE","DECAY_DATE":null,"MEAN_ELEMENT_THEORY":"SGP4","REF_FRAME":"TEME","COUNTRY_CODE":"US"},{"FILE":"3235143","CENTER_NAME":"EARTH","TLE_LINE2":"2 44927  53.0535 118.4355 0001634  93.5505 266.5670 15.06402099105775","APOAPSIS":"548.339","LAUNCH_DATE":"2020-01-07","MEAN_MOTION_DDOT":"0.0000000000000","EPHEMERIS_TYPE":"0","OBJECT_NAME":"STARLINK-1114","OBJECT_ID":"2020-001P","MEAN_ANOMALY":"266.5670","RA_OF_ASC_NODE":"118.4355","REV_AT_EPOCH":"10577","TIME_SYSTEM":"UTC","EPOCH":"2021-12-07T15:50:43.363968","SITE":"AFETR","DECAY_DATE":null,"RCS_SIZE":"LARGE","MEAN_ELEMENT_THEORY":"SGP4","REF_FRAME":"TEME","COUNTRY_CODE":"US","MEAN_MOTION":"15.06402099","INCLINATION":"53.0535","BSTAR":"0.00008761400000","ARG_OF_PERICENTER":"93.5505","PERIAPSIS":"546.076","PERIOD":"95.592","CLASSIFICATION_TYPE":"U","MEAN_MOTION_DOT":"0.00001024","ELEMENT_SET_NO":"999","GP_ID":"191296751","NORAD_CAT_ID":"44927","SEMIMAJOR_AXIS":"6925.342","ECCENTRICITY":"0.00016340","TLE_LINE1":"1 44927U 20001P   21341.66022412  .00001024  00000-0  87614-4 0  9990","OBJECT_TYPE":"PAYLOAD"},{"EPOCH":"2021-12-07T15:45:24.872832","REV_AT_EPOCH":"10577","TIME_SYSTEM":"UTC","RA_OF_ASC_NODE":"118.4670","MEAN_ANOMALY":"266.1244","OBJECT_ID":"2020-001Q","OBJECT_NAME":"STARLINK-1119","COUNTRY_CODE":"US","REF_FRAME":"TEME","MEAN_ELEMENT_THEORY":"SGP4","RCS_SIZE":"LARGE","DECAY_DATE":null,"SITE":"AFETR","LAUNCH_DATE":"2020-01-07","APOAPSIS":"548.442","TLE_LINE2":"2 44928  53.0548 118.4670 0001789  93.9949 266.1244 15.06403582105778","CENTER_NAME":"EARTH","FILE":"3235143","EPHEMERIS_TYPE":"0","MEAN_MOTION_DDOT":"0.0000000000000","TLE_LINE1":"1 44928U 20001Q   21341.65653788  .00001226  00000-0  10117-3 0  9993","ECCENTRICITY":"0.00017890","SEMIMAJOR_AXIS":"6925.338","NORAD_CAT_ID":"44928","GP_ID":"191298000","ELEMENT_SET_NO":"999","OBJECT_TYPE":"PAYLOAD","ARG_OF_PERICENTER":"93.9949","BSTAR":"0.00010117000000","INCLINATION":"53.0548","MEAN_MOTION":"15.06403582","MEAN_MOTION_DOT":"0.00001226","CLASSIFICATION_TYPE":"U","PERIOD":"95.592","PERIAPSIS":"545.964"},{"CLASSIFICATION_TYPE":"U","PERIOD":"95.593","MEAN_MOTION_DOT":"-0.00001193","PERIAPSIS":"546.084","BSTAR":"-0.00006120400000","ARG_OF_PERICENTER":"94.3027","MEAN_MOTION":"15.06392753","INCLINATION":"53.0535","OBJECT_TYPE":"PAYLOAD","NORAD_CAT_ID":"44929","SEMIMAJOR_AXIS":"6925.371","TLE_LINE1":"1 44929U 20001R   21341.77449791 -.00001193  00000-0 -61204-4 0  9993","ECCENTRICITY":"0.00016630","ELEMENT_SET_NO":"999","GP_ID":"191276816","MEAN_MOTION_DDOT":"0.0000000000000","EPHEMERIS_TYPE":"0","LAUNCH_DATE":"2020-01-07","FILE":"3234992","CENTER_NAME":"EARTH","TLE_LINE2":"2 44929  53.0535 117.9209 0001663  94.3027 265.8152 15.06392753105782","APOAPSIS":"548.387","MEAN_ELEMENT_THEORY":"SGP4","REF_FRAME":"TEME","COUNTRY_CODE":"US","SITE":"AFETR","DECAY_DATE":null,"RCS_SIZE":"LARGE","RA_OF_ASC_NODE":"117.9209","REV_AT_EPOCH":"10578","TIME_SYSTEM":"UTC","EPOCH":"2021-12-07T18:35:16.619424","OBJECT_NAME":"STARLINK-1121","OBJECT_ID":"2020-001R","MEAN_ANOMALY":"265.8152"},{"OBJECT_TYPE":"PAYLOAD","SEMIMAJOR_AXIS":"6925.350","ECCENTRICITY":"0.00013310","TLE_LINE1":"1 44930U 20001S   21341.80766724  .00000867  00000-0  77082-4 0  9993","NORAD_CAT_ID":"44930","ELEMENT_SET_NO":"999","GP_ID":"191296501","CLASSIFICATION_TYPE":"U","PERIOD":"95.592","MEAN_MOTION_DOT":"0.00000867","PERIAPSIS":"546.293","ARG_OF_PERICENTER":"101.3587","BSTAR":"0.00007708200000","INCLINATION":"53.0532","MEAN_MOTION":"15.06399458","COUNTRY_CODE":"US","MEAN_ELEMENT_THEORY":"SGP4","REF_FRAME":"TEME","RCS_SIZE":"LARGE","DECAY_DATE":null,"SITE":"AFETR","EPOCH":"2021-12-07T19:23:02.449536","RA_OF_ASC_NODE":"117.7827","REV_AT_EPOCH":"10579","TIME_SYSTEM":"UTC","OBJECT_ID":"2020-001S","MEAN_ANOMALY":"258.7551","OBJECT_NAME":"STARLINK-1123","EPHEMERIS_TYPE":"0","MEAN_MOTION_DDOT":"0.0000000000000","LAUNCH_DATE":"2020-01-07","CENTER_NAME":"EARTH","TLE_LINE2":"2 44930  53.0532 117.7827 0001331 101.3587 258.7551 15.06399458105791","APOAPSIS":"548.137","FILE":"3235143"},{"MEAN_MOTION_DDOT":"0.0000000000000","EPHEMERIS_TYPE":"0","FILE":"3235143","CENTER_NAME":"EARTH","APOAPSIS":"539.546","TLE_LINE2":"2 44931  53.0532 117.7359 0001380  78.2480 281.8665 15.09217573106536","LAUNCH_DATE":"2020-01-07","SITE":"AFETR","RCS_SIZE":"LARGE","DECAY_DATE":null,"MEAN_ELEMENT_THEORY":"SGP4","REF_FRAME":"TEME","COUNTRY_CODE":"US","OBJECT_NAME":"STARLINK-1128","OBJECT_ID":"2020-001T","MEAN_ANOMALY":"281.8665","RA_OF_ASC_NODE":"117.7359","TIME_SYSTEM":"UTC","REV_AT_EPOCH":"10653","EPOCH":"2021-12-07T18:18:53.406432","PERIAPSIS":"537.637","CLASSIFICATION_TYPE":"U","PERIOD":"95.414","MEAN_MOTION_DOT":"0.00001169","MEAN_MOTION":"15.09217573","INCLINATION":"53.0532","BSTAR":"0.00009065300000","ARG_OF_PERICENTER":"78.2480","OBJECT_TYPE":"PAYLOAD","ELEMENT_SET_NO":"999","GP_ID":"191297252","NORAD_CAT_ID":"44931","SEMIMAJOR_AXIS":"6916.727","ECCENTRICITY":"0.00013800","TLE_LINE1":"1 44931U 20001T   21341.76311813  .00001169  00000-0  90653-4 0  9999"},{"INCLINATION":"53.0536","MEAN_MOTION":"15.06399316","ARG_OF_PERICENTER":"97.3065","BSTAR":"-0.00003298000000","PERIAPSIS":"546.011","CLASSIFICATION_TYPE":"U","PERIOD":"95.592","MEAN_MOTION_DOT":"-0.00000773","ELEMENT_SET_NO":"999","GP_ID":"191297500","SEMIMAJOR_AXIS":"6925.351","TLE_LINE1":"1 44932U 20001U   21341.86295380 -.00000773  00000-0 -32980-4 0  9992","ECCENTRICITY":"0.00017400","NORAD_CAT_ID":"44932","OBJECT_TYPE":"PAYLOAD","CENTER_NAME":"EARTH","TLE_LINE2":"2 44932  53.0536 117.5377 0001740  97.3065 262.8122 15.06399316107036","APOAPSIS":"548.421","FILE":"3235143","LAUNCH_DATE":"2020-01-07","EPHEMERIS_TYPE":"0","MEAN_MOTION_DDOT":"0.0000000000000","OBJECT_ID":"2020-001U","MEAN_ANOMALY":"262.8122","OBJECT_NAME":"STARLINK-1130","EPOCH":"2021-12-07T20:42:39.208320","RA_OF_ASC_NODE":"117.5377","TIME_SYSTEM":"UTC","REV_AT_EPOCH":"10703","RCS_SIZE":"LARGE","DECAY_DATE":null,"SITE":"AFETR","COUNTRY_CODE":"US","MEAN_ELEMENT_THEORY":"SGP4","REF_FRAME":"TEME"},{"EPHEMERIS_TYPE":"0","MEAN_MOTION_DDOT":"0.0000000000000","CENTER_NAME":"EARTH","TLE_LINE2":"2 44933  53.0543 118.0124 0001888  95.2714 264.8490 15.06411950107075","APOAPSIS":"548.484","FILE":"3235143","LAUNCH_DATE":"2020-01-07","DECAY_DATE":null,"RCS_SIZE":"LARGE","SITE":"AFETR","COUNTRY_CODE":"US","MEAN_ELEMENT_THEORY":"SGP4","REF_FRAME":"TEME","OBJECT_ID":"2020-001V","MEAN_ANOMALY":"264.8490","OBJECT_NAME":"STARLINK-1144","EPOCH":"2021-12-07T18:08:43.877760","RA_OF_ASC_NODE":"118.0124","TIME_SYSTEM":"UTC","REV_AT_EPOCH":"10707","PERIAPSIS":"545.869","CLASSIFICATION_TYPE":"U","PERIOD":"95.591","MEAN_MOTION_DOT":"-0.00003387","INCLINATION":"53.0543","MEAN_MOTION":"15.06411950","ARG_OF_PERICENTER":"95.2714","BSTAR":"-0.00020853000000","OBJECT_TYPE":"PAYLOAD","ELEMENT_SET_NO":"999","GP_ID":"191298254","SEMIMAJOR_AXIS":"6925.312","TLE_LINE1":"1 44933U 20001V   21341.75606340 -.00003387  00000-0 -20853-3 0  9992","ECCENTRICITY":"0.00018880","NORAD_CAT_ID":"44933"}];
